STARLINK-37079          
1 68186U 26050V   26083.91667824  .00011966  00000+0  64069-4 0  9995
2 68186  53.1594 205.3628 0001001  53.3910 341.5010 15.80877050  2891
STARLINK-37006          
1 68187U 26050W   26083.91667824  .00028941  00000+0  14971-3 0  9993
2 68187  53.1593 205.3543 0001076  73.7551 325.3930 15.80868190  2892
STARLINK-36340          
1 68188U 26050X   26083.91667824 -.00087598  00000+0 -44355-3 0  9998
2 68188  53.1591 205.3449 0001157  78.1246 325.2907 15.80932304  2720
STARLINK-36305          
1 68189U 26050Y   26083.91667824  .00061166  00000+0  31164-3 0  9994
2 68189  53.1592 205.3367 0001229  93.4618 314.2478 15.80844962  2783
STARLINK-37071          
1 68190U 26050Z   26083.91667824 -.00059903  00000+0 -30133-3 0  9999
2 68190  53.1590 205.3188 0001017  88.9790 327.2338 15.80925451  2893
STARLINK-37091          
1 68191U 26050AA  26083.91667824 -.00033144  00000+0 -16475-3 0  9992
2 68191  53.1588 205.3098 0001275  65.3821 355.1152 15.80908375  2891
STARLINK-37098          
1 68192U 26050AB  26083.91667824 -.00030866  00000+0 -15323-3 0  9992
2 68192  53.1591 205.3010 0000984  79.5546 345.2258 15.80896437  2899
STARLINK-37090          
1 68193U 26050AC  26083.91667824 -.00025767  00000+0 -12727-3 0  9992
2 68193  53.1594 205.2828 0001088  95.9149 337.4101 15.80894388  2899
STARLINK-37093          
1 68194U 26050AD  26083.91667824  .00005028  00000+0  28990-4 0  9999
2 68194  53.1594 205.3271 0000762  45.8301   6.1400 15.80878033  2896
STARLINK-37058          
1 68195U 26050AE  26083.91667824 -.00025494  00000+0 -12590-3 0  9999
2 68195  53.1591 205.2918 0000641  58.5059  10.5481 15.80892862  2892
YAOGAN-50 02            
1 68196U 26051A   26082.15425797  .00000264  00000+0  60948-4 0  9994
2 68196 142.0892 272.3752 0072308 159.1554 201.2127 13.86640908  1074
CZ-6A R/B               
1 68197U 26051B   26083.80018524  .00001065  00000+0  13439-3 0  9996
2 68197 142.0322 284.5097 0186142 159.2684 201.5706 14.56365288  1368
